OPS 6582 (TRANSIT 5B-5) 
1 00965U 64083D   21191.75879826  .00000004  00000-0 -87930-5 0  9994
2 00965  90.0187 194.4823 0042014 145.4806  27.7081 13.56757805799183
OSCAR 7 (AO-7)          
1 07530U 74089B   21191.94218539 -.00000048  00000-0 -16923-4 0  9997
2 07530 101.8549 166.4213 0012177 339.2486  38.9454 12.53649387134673
UOSAT 2 (UO-11)         
1 14781U 84021B   21191.86988350  .00000076  00000-0  15387-4 0  9998
2 14781  97.5925 190.5582 0008742  15.1598 344.9877 14.83300981 10404
NOAA 9                  
1 15427U 84123A   21191.91731963 -.00000020  00000-0  12837-4 0  9998
2 15427  98.9949 154.9122 0015801  56.2968   9.6076 14.16137225888277
LUSAT (LO-19)           
1 20442U 90005G   21192.43679586 -.00000020  00000-0  92502-5 0  9995
2 20442  98.7427 148.1234 0012933  90.4830 269.7835 14.32990998644329
ITAMSAT (IO-26)         
1 22826U 93061D   21192.34079754 -.00000006  00000-0  15622-4 0  9990
2 22826  98.9103 210.4479 0008171 318.1343  41.9213 14.30458414449897
RADIO ROSTO (RS-15)     
1 23439U 94085A   21191.93984005 -.00000037  00000-0  15882-3 0  9997
2 23439  64.8156 337.9755 0161634 331.2129  27.9947 11.27570187 92989
JAS-2 (FO-29)           
1 24278U 96046B   21191.89033767 -.00000036  00000-0 -38184-5 0  9995
2 24278  98.5660 256.7592 0351364  88.9716 275.1653 13.53105039229413
NOAA 15                 
1 25338U 98030A   21192.36254817  .00000076  00000-0  50136-4 0  9994
2 25338  98.6801 220.6716 0009865 205.1746 154.8954 14.26044120204659
TECHSAT 1B (GO-32)      
1 25397U 98043D   21191.80868501 -.00000025  00000-0  87388-5 0  9997
2 25397  98.7719 137.2982 0001970  49.0116 311.1232 14.23711262194814
ISS (ZARYA)             
1 25544U 98067A   21192.41274810  .00001812  00000-0  41306-4 0  9992
2 25544  51.6431 222.9262 0002037 152.4720 220.3125 15.48788953292354
ORSTED                  
1 25635U 99008B   21191.86052942  .00000043  00000-0  17733-4 0  9999
2 25635  96.4768 131.0734 0138136 190.4414 169.3909 14.48300707181109
PHASE 3D (AO-40)        
1 26609U 00072B   21190.41063827 -.00000078  00000-0  00000-0 0  9992
2 26609   9.1592 320.8515 7946041 270.8861  10.0713  1.25586866 94864
PCSAT (NO-44)           
1 26931U 01043C   21192.43672611 -.00000028  00000-0  21089-4 0  9999
2 26931  67.0496 218.5417 0006208 261.6450  98.3947 14.30624535 32786
SAUDISAT 1C (SO-50)     
1 27607U 02058C   21192.49274050 -.00000012  00000-0  18716-4 0  9994
2 27607  64.5552 264.8352 0043464  13.0040 347.2172 14.75764213998260
CUTE-1 (CO-55)          
1 27844U 03031E   21192.46482812  .00000038  00000-0  36717-4 0  9991
2 27844  98.6791 200.3122 0010188  16.6704 343.4807 14.22319230935439
CUBESAT XI-IV (CO-57)   
1 27848U 03031J   21191.48001172  .00000033  00000-0  34917-4 0  9997
2 27848  98.6846 199.9055 0010410  31.9934 328.1874 14.21895050935112
MOZHAYETS 4 (RS-22)     
1 27939U 03042A   21192.45911523  .00000125  00000-0  31103-4 0  9994
2 27939  98.1447 329.3901 0012499 198.7171 161.3569 14.66998591951049
INMARSAT 4-F1           
1 28628U 05009A   21191.84351258 -.00000254  00000-0  00000-0 0  9992
2 28628   3.3794  31.3151 0002689  83.5474 261.2740  1.00273427 59590
NOAA 18                 
1 28654U 05018A   21192.45734295  .00000104  00000-0  80384-4 0  9995
2 28654  98.9928 257.4160 0013788 210.5093 149.5278 14.12620993831920
CUBESAT XI-V            
1 28895U 05043F   21192.34856257  .00000112  00000-0  30353-4 0  9991
2 28895  98.0621 325.0690 0017853 132.4157 227.8559 14.63930753837739
METOP-A                 
1 29499U 06044A   21192.40235051  .00000004  00000-0  20726-4 0  9997
2 29499  98.4699 230.7140 0001073 119.1348 303.4538 14.21503936764147
CARTOSAT-2 (IRS-P7)     
1 29710U 07001B   21191.84123576  .00004069  00000-0  12476-3 0  9999
2 29710  97.8749 275.3003 0170837 165.7193 194.8961 15.21290993784203
FALCONSAT-3             
1 30776U 07006E   21192.01256858  .00003419  00000-0  82032-4 0  9992
2 30776  35.4350 308.7938 0001690 129.5785 230.5092 15.41009433796740
CAPE-1                  
1 31130U 07012P   21191.81913393  .00000116  00000-0  35420-4 0  9995
2 31130  98.2343 130.6544 0094390 272.0709  86.9682 14.56699302755353
CARTOSAT-2A             
1 32783U 08021A   21192.43024351  .00000044  00000-0  12925-4 0  9992
2 32783  97.8710 251.1416 0012515 183.8527 176.2580 14.78696317712624
CUTE-1.7+APD II (CO-65) 
1 32785U 08021C   21191.85666174  .00000224  00000-0  29650-4 0  9997
2 32785  97.6120 169.7926 0011416 288.4512  71.5465 14.88747453715726
COMPASS-1               
1 32787U 08021E   21191.96801710  .00000473  00000-0  49239-4 0  9999
2 32787  97.5293 181.9434 0011478 203.8200 156.2490 14.94170655717093
AAUSAT-II               
1 32788U 08021F   21191.97249898  .00000335  00000-0  35007-4 0  9999
2 32788  97.5047 185.6442 0011404 183.3532 176.7615 14.95633020717479
DELFI-C3 (DO-64)        
1 32789U 08021G   21191.88831470  .00001596  00000-0  10433-3 0  9998
2 32789  97.3740 226.3507 0013371  66.6670 293.5964 15.09108958720364
SEEDS II (CO-66)        
1 32791U 08021J   21191.70999269  .00000497  00000-0  55067-4 0  9995
2 32791  97.5716 175.5406 0011654 246.5861 113.4133 14.91442280716247
YUBILEINY (RS-30)       
1 32953U 08025A   21192.37277496  .00000021  00000-0  80971-4 0  9999
2 32953  82.5042  36.0536 0018790 286.8759  73.0260 12.43102295595958
FENGYUN 3A              
1 32958U 08026A   21192.18379923 -.00000004  00000-0  18065-4 0  9999
2 32958  98.4513 164.7566 0007648 294.7637  65.2743 14.18660948679946
PRISM (HITOMI)          
1 33493U 09002B   21192.17968557  .00001217  00000-0  10920-3 0  9992
2 33493  98.1901 155.8670 0014187 201.5120 158.5507 14.97719147677883
STARS (KUKAI)           
1 33498U 09002G   21192.40891259  .00000191  00000-0  33051-4 0  9998
2 33498  98.2109  72.9869 0009471 270.2350  89.7776 14.79374617671422
KKS-1 (KISEKI)          
1 33499U 09002H   21192.40731284  .00000097  00000-0  22161-4 0  9995
2 33499  98.2656  62.9084 0008454 332.8266  27.2499 14.75673356670379
NOAA 19                 
1 33591U 09005A   21192.49369340  .00000082  00000-0  69676-4 0  9996
2 33591  99.1819 213.7934 0014912  67.0999 293.1745 14.12481600640318
SWISSCUBE               
1 35932U 09051B   21192.12382086  .00000117  00000-0  37222-4 0  9991
2 35932  98.6013  32.8865 0008071  24.1093 336.0480 14.56551295626447
BEESAT-1                
1 35933U 09051C   21191.81377083  .00000111  00000-0  35838-4 0  9993
2 35933  98.5975  34.3770 0006532  38.8727 321.2939 14.56607039626434
ITUPSAT1                
1 35935U 09051E   21192.10678414  .00000085  00000-0  30632-4 0  9997
2 35935  98.6079  34.8125 0008826  36.5658 323.6139 14.55738424626246
XIWANG-1 (HOPE-1)       
1 36122U 09072B   21192.47069074 -.00000045  00000-0 -53068-5 0  9992
2 36122 100.1317 172.1412 0008032  49.9497 310.2318 13.16361227556053
CARTOSAT-2B             
1 36795U 10035A   21191.45158501 -.00017115  00000-0 -23304-2 0  9993
2 36795  97.9656 249.6946 0012238 266.6339  93.3870 14.78689068593526
TISAT 1                 
1 36799U 10035E   21191.79359160  .00000378  00000-0  43614-4 0  9997
2 36799  98.2054  23.5549 0013121 132.6702 227.5624 14.91775251596810
FENGYUN 3B              
1 37214U 10059A   21192.55553284  .00000007  00000-0  26974-4 0  9993
2 37214  99.0785 187.1121 0015908 244.9025 115.0496 14.15991480552748
JUGNU                   
1 37839U 11058B   21192.06318685  .00000282  00000-0  84015-5 0  9992
2 37839  19.9618  86.0069 0018801 352.9024 142.3819 14.12718120503911
SRMSAT                  
1 37841U 11058D   21192.27567361  .00000276  00000-0  60893-5 0  9996
2 37841  19.9709 157.0922 0011878 194.6873 305.6778 14.10698684503224
M-CUBED & EXP-1 PRIME   
1 37855U 11061F   21192.37885667  .00002345  00000-0  11887-3 0  9994
2 37855 101.7122 128.1832 0166486 359.5981   0.5072 15.07842362530257
HORYU-2                 
1 38340U 12025D   21192.14239587  .00000191  00000-0  35470-4 0  9996
2 38340  98.2318 259.9432 0010380 235.5573 124.4655 14.76063862492293
METOP-B                 
1 38771U 12049A   21192.45460918  .00000007  00000-0  23269-4 0  9997
2 38771  98.7135 252.2267 0000579  28.7321  32.2946 14.21486863457286
SARAL                   
1 39086U 13009A   21191.86640971 -.00000019  00000-0  92086-5 0  9995
2 39086  98.5461  17.5622 0001392 130.2657 229.8649 14.32055910437591
AAUSAT 3                
1 39087U 13009B   21192.34815990  .00000126  00000-0  58245-4 0  9991
2 39087  98.4234  35.1005 0011633 200.3223 159.7502 14.35948745438621
STRAND-1                
1 39090U 13009E   21192.45923474  .00000037  00000-0  28100-4 0  9992
2 39090  98.4262  34.0931 0008611 200.2151 159.8695 14.35176783438509
BRITE-AUSTRIA           
1 39091U 13009F   21191.81621366  .00000003  00000-0  15888-4 0  9999
2 39091  98.4266  32.5992 0009808 210.1586 149.9036 14.35193717438421
UNIBRITE                
1 39092U 13009G   21191.87693933  .00000014  00000-0  19959-4 0  9990
2 39092  98.4295  32.3677 0008809 203.8139 156.2641 14.35064190438396
SOMP                    
1 39134U 13015E   21191.89195740  .00001670  00000-0  80028-4 0  9993
2 39134  64.8641  96.2376 0010780 317.5913  42.4382 15.22723024454788
BEESAT-3                
1 39135U 13015F   21191.94112655  .00001503  00000-0  79856-4 0  9996
2 39135  64.8663 125.6544 0006048 343.9106  16.1828 15.19484605454188
BEESAT-2                
1 39136U 13015G   21191.55389786  .00001276  00000-0  70267-4 0  9999
2 39136  64.8742 133.3955 0023173 242.3847 117.4926 15.18830853453970
NEE-01 PEGASO           
1 39151U 13018B   21192.28517212  .00000150  00000-0  26663-4 0  9998
2 39151  97.9813 294.6033 0015543 281.6543  78.2924 14.80367918443204
CUBEBUG-1 (CAPITAN BETO)
1 39153U 13018D   21192.29331531  .00000174  00000-0  29449-4 0  9990
2 39153  97.9966 297.9293 0015394 276.4455  83.5004 14.80951462443332
